Country,State,Zip,City,Tax Rate,Tax Name,Priority,Compound,Shipping,Tax Class
US,CA,90001-90039,*,9,CA Sales,1,1,1,standard
US,CA,90040-90040,*,9.5,CA Sales,1,1,1,standard
US,CA,90041-90224,*,9,CA Sales,1,1,1,standard
US,CA,90230-90233,*,9.5,CA Sales,1,1,1,standard
US,CA,90239-90278,*,9,CA Sales,1,1,1,standard
US,CA,90280-90280,*,10,CA Sales,1,1,1,standard
US,CA,90290-90296,*,9,CA Sales,1,1,1,standard
US,CA,90301-90303,*,9.5,CA Sales,1,1,1,standard
US,CA,90304-90304,*,9,CA Sales,1,1,1,standard
US,CA,90305-90311,*,9.5,CA Sales,1,1,1,standard
US,CA,90312-90312,*,9,CA Sales,1,1,1,standard
US,CA,90401-90411,*,9.5,CA Sales,1,1,1,standard
US,CA,90501-90610,*,9,CA Sales,1,1,1,standard
US,CA,90620-90630,*,8,CA Sales,1,1,1,standard
US,CA,90631-90633,*,8.5,CA Sales,1,1,1,standard
US,CA,90637-90639,*,10,CA Sales,1,1,1,standard
US,CA,90640-90652,*,9,CA Sales,1,1,1,standard
US,CA,90660-90662,*,10,CA Sales,1,1,1,standard
US,CA,90670-90671,*,9,CA Sales,1,1,1,standard
US,CA,90680-90680,*,8,CA Sales,1,1,1,standard
US,CA,90701-90703,*,9,CA Sales,1,1,1,standard
US,CA,90704-90704,*,9.5,CA Sales,1,1,1,standard
US,CA,90706-90717,*,9,CA Sales,1,1,1,standard
US,CA,90720-90721,*,8,CA Sales,1,1,1,standard
US,CA,90723-90734,*,9,CA Sales,1,1,1,standard
US,CA,90740-90743,*,8,CA Sales,1,1,1,standard
US,CA,90744-91316,*,9,CA Sales,1,1,1,standard
US,CA,91319-91320,*,7.5,CA Sales,1,1,1,standard
US,CA,91321-91357,*,9,CA Sales,1,1,1,standard
US,CA,91358-91362,*,7.5,CA Sales,1,1,1,standard
US,CA,91364-91376,*,9,CA Sales,1,1,1,standard
US,CA,91377-91377,*,7.5,CA Sales,1,1,1,standard
US,CA,91380-91618,*,9,CA Sales,1,1,1,standard
US,CA,91701-91701,*,8,CA Sales,1,1,1,standard
US,CA,91702-91706,*,9,CA Sales,1,1,1,standard
US,CA,91708-91710,*,8,CA Sales,1,1,1,standard
US,CA,91711-91724,*,9,CA Sales,1,1,1,standard
US,CA,91729-91730,*,8,CA Sales,1,1,1,standard
US,CA,91731-91735,*,9.5,CA Sales,1,1,1,standard
US,CA,91737-91739,*,8,CA Sales,1,1,1,standard
US,CA,91740-91741,*,9,CA Sales,1,1,1,standard
US,CA,91743-91743,*,8,CA Sales,1,1,1,standard
US,CA,91744-91750,*,9,CA Sales,1,1,1,standard
US,CA,91752-91752,*,8,CA Sales,1,1,1,standard
US,CA,91754-91756,*,9,CA Sales,1,1,1,standard
US,CA,91758-91762,*,8,CA Sales,1,1,1,standard
US,CA,91763-91763,*,8.25,CA Sales,1,1,1,standard
US,CA,91764-91764,*,8,CA Sales,1,1,1,standard
US,CA,91765-91780,*,9,CA Sales,1,1,1,standard
US,CA,91784-91786,*,8,CA Sales,1,1,1,standard
US,CA,91788-91899,*,9,CA Sales,1,1,1,standard
US,CA,91901-91935,*,8,CA Sales,1,1,1,standard
US,CA,91941-91943,*,8.75,CA Sales,1,1,1,standard
US,CA,91944-91948,*,8,CA Sales,1,1,1,standard
US,CA,91950-91951,*,9,CA Sales,1,1,1,standard
US,CA,91962-92019,*,8,CA Sales,1,1,1,standard
US,CA,92020-92020,*,9,CA Sales,1,1,1,standard
US,CA,92021-92021,*,8,CA Sales,1,1,1,standard
US,CA,92022-92022,*,9,CA Sales,1,1,1,standard
US,CA,92023-92079,*,8,CA Sales,1,1,1,standard
US,CA,92081-92081,*,8.5,CA Sales,1,1,1,standard
US,CA,92082-92082,*,8,CA Sales,1,1,1,standard
US,CA,92083-92085,*,8.5,CA Sales,1,1,1,standard
US,CA,92086-92230,*,8,CA Sales,1,1,1,standard
US,CA,92231-92232,*,8.5,CA Sales,1,1,1,standard
US,CA,92233-92233,*,8,CA Sales,1,1,1,standard
US,CA,92234-92235,*,9,CA Sales,1,1,1,standard
US,CA,92236-92261,*,8,CA Sales,1,1,1,standard
US,CA,92262-92264,*,9,CA Sales,1,1,1,standard
US,CA,92266-92399,*,8,CA Sales,1,1,1,standard
US,CA,92401-92403,*,8.25,CA Sales,1,1,1,standard
US,CA,92404-92404,*,8,CA Sales,1,1,1,standard
US,CA,92405-92406,*,8.25,CA Sales,1,1,1,standard
US,CA,92407-92407,*,8,CA Sales,1,1,1,standard
US,CA,92408-92423,*,8.25,CA Sales,1,1,1,standard
US,CA,92427-92899,*,8,CA Sales,1,1,1,standard
US,CA,93001-93012,*,7.5,CA Sales,1,1,1,standard
US,CA,93013-93014,*,8,CA Sales,1,1,1,standard
US,CA,93015-93024,*,7.5,CA Sales,1,1,1,standard
US,CA,93030-93036,*,8,CA Sales,1,1,1,standard
US,CA,93040-93040,*,7.5,CA Sales,1,1,1,standard
US,CA,93041-93041,*,8,CA Sales,1,1,1,standard
US,CA,93042-93042,*,7.5,CA Sales,1,1,1,standard
US,CA,93043-93044,*,8,CA Sales,1,1,1,standard
US,CA,93060-93066,*,7.5,CA Sales,1,1,1,standard
US,CA,93067-93067,*,8,CA Sales,1,1,1,standard
US,CA,93094-93099,*,7.5,CA Sales,1,1,1,standard
US,CA,93101-93201,*,8,CA Sales,1,1,1,standard
US,CA,93202-93202,*,7.5,CA Sales,1,1,1,standard
US,CA,93203-93203,*,8.5,CA Sales,1,1,1,standard
US,CA,93204-93206,*,7.5,CA Sales,1,1,1,standard
US,CA,93207-93208,*,8,CA Sales,1,1,1,standard
US,CA,93210-93210,*,8.225,CA Sales,1,1,1,standard
US,CA,93212-93212,*,7.5,CA Sales,1,1,1,standard
US,CA,93215-93216,*,8.5,CA Sales,1,1,1,standard
US,CA,93218-93219,*,8,CA Sales,1,1,1,standard
US,CA,93220-93220,*,7.5,CA Sales,1,1,1,standard
US,CA,93221-93221,*,8,CA Sales,1,1,1,standard
US,CA,93222-93222,*,7.5,CA Sales,1,1,1,standard
US,CA,93223-93223,*,8.5,CA Sales,1,1,1,standard
US,CA,93224-93226,*,7.5,CA Sales,1,1,1,standard
US,CA,93227-93227,*,8,CA Sales,1,1,1,standard
US,CA,93230-93232,*,7.5,CA Sales,1,1,1,standard
US,CA,93234-93234,*,8.225,CA Sales,1,1,1,standard
US,CA,93235-93237,*,8,CA Sales,1,1,1,standard
US,CA,93238-93241,*,7.5,CA Sales,1,1,1,standard
US,CA,93242-93242,*,8.225,CA Sales,1,1,1,standard
US,CA,93243-93243,*,7.5,CA Sales,1,1,1,standard
US,CA,93244-93244,*,8,CA Sales,1,1,1,standard
US,CA,93245-93246,*,7.5,CA Sales,1,1,1,standard
US,CA,93247-93247,*,8,CA Sales,1,1,1,standard
US,CA,93249-93252,*,7.5,CA Sales,1,1,1,standard
US,CA,93254-93254,*,8,CA Sales,1,1,1,standard
US,CA,93255-93255,*,7.5,CA Sales,1,1,1,standard
US,CA,93256-93256,*,8,CA Sales,1,1,1,standard
US,CA,93257-93258,*,8.5,CA Sales,1,1,1,standard
US,CA,93260-93262,*,8,CA Sales,1,1,1,standard
US,CA,93263-93263,*,7.5,CA Sales,1,1,1,standard
US,CA,93265-93265,*,8,CA Sales,1,1,1,standard
US,CA,93266-93266,*,7.5,CA Sales,1,1,1,standard
US,CA,93267-93267,*,8,CA Sales,1,1,1,standard
US,CA,93268-93268,*,7.5,CA Sales,1,1,1,standard
US,CA,93270-93272,*,8,CA Sales,1,1,1,standard
US,CA,93274-93275,*,8.5,CA Sales,1,1,1,standard
US,CA,93276-93276,*,7.5,CA Sales,1,1,1,standard
US,CA,93277-93279,*,8.25,CA Sales,1,1,1,standard
US,CA,93280-93280,*,7.5,CA Sales,1,1,1,standard
US,CA,93282-93282,*,8,CA Sales,1,1,1,standard
US,CA,93283-93285,*,7.5,CA Sales,1,1,1,standard
US,CA,93286-93286,*,8,CA Sales,1,1,1,standard
US,CA,93287-93287,*,7.5,CA Sales,1,1,1,standard
US,CA,93290-93292,*,8.25,CA Sales,1,1,1,standard
US,CA,93301-93390,*,7.5,CA Sales,1,1,1,standard
US,CA,93401-93401,*,8,CA Sales,1,1,1,standard
US,CA,93402-93402,*,7.5,CA Sales,1,1,1,standard
US,CA,93403-93406,*,8,CA Sales,1,1,1,standard
US,CA,93407-93407,*,7.5,CA Sales,1,1,1,standard
US,CA,93408-93410,*,8,CA Sales,1,1,1,standard
US,CA,93412-93412,*,7.5,CA Sales,1,1,1,standard
US,CA,93420-93420,*,8,CA Sales,1,1,1,standard
US,CA,93421-93426,*,7.5,CA Sales,1,1,1,standard
US,CA,93427-93427,*,8,CA Sales,1,1,1,standard
US,CA,93428-93428,*,7.5,CA Sales,1,1,1,standard
US,CA,93429-93429,*,8,CA Sales,1,1,1,standard
US,CA,93430-93432,*,7.5,CA Sales,1,1,1,standard
US,CA,93433-93434,*,8,CA Sales,1,1,1,standard
US,CA,93435-93435,*,7.5,CA Sales,1,1,1,standard
US,CA,93436-93443,*,8,CA Sales,1,1,1,standard
US,CA,93444-93445,*,7.5,CA Sales,1,1,1,standard
US,CA,93446-93449,*,8,CA Sales,1,1,1,standard
US,CA,93450-93453,*,7.5,CA Sales,1,1,1,standard
US,CA,93454-93454,*,8.25,CA Sales,1,1,1,standard
US,CA,93455-93455,*,8,CA Sales,1,1,1,standard
US,CA,93456-93456,*,8.25,CA Sales,1,1,1,standard
US,CA,93457-93457,*,8,CA Sales,1,1,1,standard
US,CA,93458-93458,*,8.25,CA Sales,1,1,1,standard
US,CA,93460-93460,*,8,CA Sales,1,1,1,standard
US,CA,93461-93461,*,7.5,CA Sales,1,1,1,standard
US,CA,93463-93464,*,8,CA Sales,1,1,1,standard
US,CA,93465-93475,*,7.5,CA Sales,1,1,1,standard
US,CA,93483-93483,*,8,CA Sales,1,1,1,standard
US,CA,93501-93505,*,7.5,CA Sales,1,1,1,standard
US,CA,93510-93510,*,9,CA Sales,1,1,1,standard
US,CA,93512-93512,*,7.5,CA Sales,1,1,1,standard
US,CA,93513-93515,*,8,CA Sales,1,1,1,standard
US,CA,93516-93519,*,7.5,CA Sales,1,1,1,standard
US,CA,93522-93522,*,8,CA Sales,1,1,1,standard
US,CA,93523-93524,*,7.5,CA Sales,1,1,1,standard
US,CA,93526-93526,*,8,CA Sales,1,1,1,standard
US,CA,93527-93529,*,7.5,CA Sales,1,1,1,standard
US,CA,93530-93530,*,8,CA Sales,1,1,1,standard
US,CA,93531-93531,*,7.5,CA Sales,1,1,1,standard
US,CA,93532-93539,*,9,CA Sales,1,1,1,standard
US,CA,93541-93542,*,7.5,CA Sales,1,1,1,standard
US,CA,93543-93544,*,9,CA Sales,1,1,1,standard
US,CA,93545-93549,*,8,CA Sales,1,1,1,standard
US,CA,93550-93553,*,9,CA Sales,1,1,1,standard
US,CA,93554-93554,*,7.5,CA Sales,1,1,1,standard
US,CA,93555-93556,*,8.25,CA Sales,1,1,1,standard
US,CA,93558-93561,*,7.5,CA Sales,1,1,1,standard
US,CA,93562-93562,*,8,CA Sales,1,1,1,standard
US,CA,93563-93563,*,9,CA Sales,1,1,1,standard
US,CA,93581-93581,*,7.5,CA Sales,1,1,1,standard
US,CA,93584-93591,*,9,CA Sales,1,1,1,standard
US,CA,93592-93592,*,8,CA Sales,1,1,1,standard
US,CA,93596-93596,*,7.5,CA Sales,1,1,1,standard
US,CA,93599-93599,*,9,CA Sales,1,1,1,standard
US,CA,93601-93601,*,8,CA Sales,1,1,1,standard
US,CA,93602-93602,*,8.225,CA Sales,1,1,1,standard
US,CA,93603-93604,*,8,CA Sales,1,1,1,standard
US,CA,93605-93609,*,8.225,CA Sales,1,1,1,standard
US,CA,93610-93610,*,8,CA Sales,1,1,1,standard
US,CA,93611-93613,*,8.225,CA Sales,1,1,1,standard
US,CA,93614-93615,*,8,CA Sales,1,1,1,standard
US,CA,93616-93616,*,8.225,CA Sales,1,1,1,standard
US,CA,93618-93618,*,8.75,CA Sales,1,1,1,standard
US,CA,93619-93619,*,8.225,CA Sales,1,1,1,standard
US,CA,93620-93620,*,7.5,CA Sales,1,1,1,standard
US,CA,93621-93622,*,8.225,CA Sales,1,1,1,standard
US,CA,93623-93623,*,8,CA Sales,1,1,1,standard
US,CA,93624-93625,*,8.225,CA Sales,1,1,1,standard
US,CA,93626-93626,*,8,CA Sales,1,1,1,standard
US,CA,93627-93631,*,8.225,CA Sales,1,1,1,standard
US,CA,93633-93633,*,8,CA Sales,1,1,1,standard
US,CA,93634-93634,*,8.225,CA Sales,1,1,1,standard
US,CA,93635-93639,*,8,CA Sales,1,1,1,standard
US,CA,93640-93642,*,8.225,CA Sales,1,1,1,standard
US,CA,93643-93645,*,8,CA Sales,1,1,1,standard
US,CA,93646-93646,*,8.225,CA Sales,1,1,1,standard
US,CA,93647-93647,*,8,CA Sales,1,1,1,standard
US,CA,93648-93652,*,8.225,CA Sales,1,1,1,standard
US,CA,93653-93653,*,8,CA Sales,1,1,1,standard
US,CA,93654-93654,*,8.725,CA Sales,1,1,1,standard
US,CA,93656-93656,*,8.225,CA Sales,1,1,1,standard
US,CA,93657-93657,*,8.975,CA Sales,1,1,1,standard
US,CA,93660-93660,*,8.225,CA Sales,1,1,1,standard
US,CA,93661-93661,*,7.5,CA Sales,1,1,1,standard
US,CA,93662-93662,*,8.725,CA Sales,1,1,1,standard
US,CA,93664-93664,*,8.225,CA Sales,1,1,1,standard
US,CA,93665-93665,*,7.5,CA Sales,1,1,1,standard
US,CA,93666-93666,*,8,CA Sales,1,1,1,standard
US,CA,93667-93668,*,8.225,CA Sales,1,1,1,standard
US,CA,93669-93673,*,8,CA Sales,1,1,1,standard
US,CA,93675-93888,*,8.225,CA Sales,1,1,1,standard
US,CA,93901-93906,*,8,CA Sales,1,1,1,standard
US,CA,93907-93908,*,7.5,CA Sales,1,1,1,standard
US,CA,93912-93915,*,8,CA Sales,1,1,1,standard
US,CA,93920-93926,*,7.5,CA Sales,1,1,1,standard
US,CA,93927-93927,*,8.5,CA Sales,1,1,1,standard
US,CA,93928-93932,*,7.5,CA Sales,1,1,1,standard
US,CA,93933-93933,*,8.5,CA Sales,1,1,1,standard
US,CA,93940-93944,*,7.5,CA Sales,1,1,1,standard
US,CA,93950-93950,*,8.5,CA Sales,1,1,1,standard
US,CA,93953-93954,*,7.5,CA Sales,1,1,1,standard
US,CA,93955-93960,*,8.5,CA Sales,1,1,1,standard
US,CA,93962-93962,*,7.5,CA Sales,1,1,1,standard
US,CA,94002-94018,*,9,CA Sales,1,1,1,standard
US,CA,94019-94019,*,9.5,CA Sales,1,1,1,standard
US,CA,94020-94021,*,9,CA Sales,1,1,1,standard
US,CA,94022-94024,*,8.75,CA Sales,1,1,1,standard
US,CA,94025-94030,*,9,CA Sales,1,1,1,standard
US,CA,94035-94035,*,8.75,CA Sales,1,1,1,standard
US,CA,94037-94038,*,9,CA Sales,1,1,1,standard
US,CA,94039-94043,*,8.75,CA Sales,1,1,1,standard
US,CA,94044-94083,*,9,CA Sales,1,1,1,standard
US,CA,94085-94127,*,8.75,CA Sales,1,1,1,standard
US,CA,94128-94128,*,9,CA Sales,1,1,1,standard
US,CA,94129-94188,*,8.75,CA Sales,1,1,1,standard
US,CA,94203-94203,*,8,CA Sales,1,1,1,standard
US,CA,94204-94204,*,8.5,CA Sales,1,1,1,standard
US,CA,94205-94206,*,8,CA Sales,1,1,1,standard
US,CA,94207-94211,*,8.5,CA Sales,1,1,1,standard
US,CA,94230-94232,*,8,CA Sales,1,1,1,standard
US,CA,94234-94234,*,8.5,CA Sales,1,1,1,standard
US,CA,94239-94244,*,8,CA Sales,1,1,1,standard
US,CA,94245-94245,*,8.5,CA Sales,1,1,1,standard
US,CA,94246-94247,*,8,CA Sales,1,1,1,standard
US,CA,94250-94250,*,8.5,CA Sales,1,1,1,standard
US,CA,94254-94257,*,8,CA Sales,1,1,1,standard
US,CA,94258-94258,*,8.5,CA Sales,1,1,1,standard
US,CA,94259-94269,*,8,CA Sales,1,1,1,standard
US,CA,94278-94278,*,8.5,CA Sales,1,1,1,standard
US,CA,94280-94282,*,8,CA Sales,1,1,1,standard
US,CA,94283-94283,*,8.5,CA Sales,1,1,1,standard
US,CA,94284-94290,*,8,CA Sales,1,1,1,standard
US,CA,94291-94291,*,8.5,CA Sales,1,1,1,standard
US,CA,94293-94297,*,8,CA Sales,1,1,1,standard
US,CA,94299-94299,*,8.5,CA Sales,1,1,1,standard
US,CA,94301-94309,*,8.75,CA Sales,1,1,1,standard
US,CA,94401-94403,*,9.25,CA Sales,1,1,1,standard
US,CA,94404-94404,*,9,CA Sales,1,1,1,standard
US,CA,94497-94497,*,9.25,CA Sales,1,1,1,standard
US,CA,94501-94502,*,9,CA Sales,1,1,1,standard
US,CA,94503-94503,*,8,CA Sales,1,1,1,standard
US,CA,94505-94507,*,8.5,CA Sales,1,1,1,standard
US,CA,94508-94508,*,8,CA Sales,1,1,1,standard
US,CA,94509-94509,*,8.5,CA Sales,1,1,1,standard
US,CA,94510-94510,*,7.625,CA Sales,1,1,1,standard
US,CA,94511-94511,*,8.5,CA Sales,1,1,1,standard
US,CA,94512-94512,*,7.625,CA Sales,1,1,1,standard
US,CA,94513-94514,*,8.5,CA Sales,1,1,1,standard
US,CA,94515-94515,*,8,CA Sales,1,1,1,standard
US,CA,94516-94517,*,8.5,CA Sales,1,1,1,standard
US,CA,94518-94522,*,9,CA Sales,1,1,1,standard
US,CA,94523-94523,*,8.5,CA Sales,1,1,1,standard
US,CA,94524-94524,*,9,CA Sales,1,1,1,standard
US,CA,94525-94526,*,8.5,CA Sales,1,1,1,standard
US,CA,94527-94527,*,9,CA Sales,1,1,1,standard
US,CA,94528-94528,*,8.5,CA Sales,1,1,1,standard
US,CA,94529-94529,*,9,CA Sales,1,1,1,standard
US,CA,94530-94530,*,9.5,CA Sales,1,1,1,standard
US,CA,94531-94531,*,8.5,CA Sales,1,1,1,standard
US,CA,94533-94535,*,8.625,CA Sales,1,1,1,standard
US,CA,94536-94547,*,9,CA Sales,1,1,1,standard
US,CA,94548-94549,*,8.5,CA Sales,1,1,1,standard
US,CA,94550-94552,*,9,CA Sales,1,1,1,standard
US,CA,94553-94553,*,8.5,CA Sales,1,1,1,standard
US,CA,94555-94555,*,9,CA Sales,1,1,1,standard
US,CA,94556-94556,*,8.5,CA Sales,1,1,1,standard
US,CA,94557-94557,*,9,CA Sales,1,1,1,standard
US,CA,94558-94559,*,8,CA Sales,1,1,1,standard
US,CA,94560-94560,*,9,CA Sales,1,1,1,standard
US,CA,94561-94561,*,8.5,CA Sales,1,1,1,standard
US,CA,94562-94562,*,8,CA Sales,1,1,1,standard
US,CA,94563-94566,*,9,CA Sales,1,1,1,standard
US,CA,94567-94567,*,8,CA Sales,1,1,1,standard
US,CA,94568-94568,*,9,CA Sales,1,1,1,standard
US,CA,94569-94570,*,8.5,CA Sales,1,1,1,standard
US,CA,94571-94571,*,8.375,CA Sales,1,1,1,standard
US,CA,94572-94572,*,8.5,CA Sales,1,1,1,standard
US,CA,94573-94574,*,8,CA Sales,1,1,1,standard
US,CA,94575-94575,*,8.5,CA Sales,1,1,1,standard
US,CA,94576-94576,*,8,CA Sales,1,1,1,standard
US,CA,94577-94579,*,9.25,CA Sales,1,1,1,standard
US,CA,94580-94580,*,9,CA Sales,1,1,1,standard
US,CA,94581-94581,*,8,CA Sales,1,1,1,standard
US,CA,94582-94583,*,8.5,CA Sales,1,1,1,standard
US,CA,94585-94585,*,7.625,CA Sales,1,1,1,standard
US,CA,94586-94586,*,9,CA Sales,1,1,1,standard
US,CA,94587-94587,*,9.5,CA Sales,1,1,1,standard
US,CA,94588-94588,*,9,CA Sales,1,1,1,standard
US,CA,94589-94592,*,8.625,CA Sales,1,1,1,standard
US,CA,94595-94598,*,8.5,CA Sales,1,1,1,standard
US,CA,94599-94599,*,8,CA Sales,1,1,1,standard
US,CA,94601-94705,*,9,CA Sales,1,1,1,standard
US,CA,94706-94706,*,9.5,CA Sales,1,1,1,standard
US,CA,94707-94802,*,9,CA Sales,1,1,1,standard
US,CA,94803-94803,*,8.5,CA Sales,1,1,1,standard
US,CA,94804-94808,*,9,CA Sales,1,1,1,standard
US,CA,94820-94820,*,8.5,CA Sales,1,1,1,standard
US,CA,94850-94903,*,9,CA Sales,1,1,1,standard
US,CA,94904-94904,*,8.5,CA Sales,1,1,1,standard
US,CA,94912-94913,*,9,CA Sales,1,1,1,standard
US,CA,94914-94914,*,8.5,CA Sales,1,1,1,standard
US,CA,94915-94915,*,9,CA Sales,1,1,1,standard
US,CA,94920-94920,*,8.5,CA Sales,1,1,1,standard
US,CA,94922-94923,*,8.25,CA Sales,1,1,1,standard
US,CA,94924-94925,*,8.5,CA Sales,1,1,1,standard
US,CA,94926-94928,*,8.75,CA Sales,1,1,1,standard
US,CA,94929-94929,*,8.5,CA Sales,1,1,1,standard
US,CA,94930-94930,*,9,CA Sales,1,1,1,standard
US,CA,94931-94931,*,8.75,CA Sales,1,1,1,standard
US,CA,94933-94942,*,8.5,CA Sales,1,1,1,standard
US,CA,94945-94945,*,9,CA Sales,1,1,1,standard
US,CA,94946-94946,*,8.5,CA Sales,1,1,1,standard
US,CA,94947-94949,*,9,CA Sales,1,1,1,standard
US,CA,94950-94950,*,8.5,CA Sales,1,1,1,standard
US,CA,94951-94955,*,8.25,CA Sales,1,1,1,standard
US,CA,94956-94971,*,8.5,CA Sales,1,1,1,standard
US,CA,94972-94972,*,8.25,CA Sales,1,1,1,standard
US,CA,94973-94974,*,8.5,CA Sales,1,1,1,standard
US,CA,94975-94975,*,8.25,CA Sales,1,1,1,standard
US,CA,94976-94977,*,8.5,CA Sales,1,1,1,standard
US,CA,94978-94978,*,9,CA Sales,1,1,1,standard
US,CA,94979-94979,*,8.5,CA Sales,1,1,1,standard
US,CA,94998-94998,*,9,CA Sales,1,1,1,standard
US,CA,94999-95001,*,8.25,CA Sales,1,1,1,standard
US,CA,95002-95002,*,8.75,CA Sales,1,1,1,standard
US,CA,95003-95003,*,8.25,CA Sales,1,1,1,standard
US,CA,95004-95004,*,7.5,CA Sales,1,1,1,standard
US,CA,95005-95007,*,8.25,CA Sales,1,1,1,standard
US,CA,95008-95009,*,9,CA Sales,1,1,1,standard
US,CA,95010-95010,*,8.75,CA Sales,1,1,1,standard
US,CA,95011-95011,*,9,CA Sales,1,1,1,standard
US,CA,95012-95012,*,7.5,CA Sales,1,1,1,standard
US,CA,95013-95015,*,8.75,CA Sales,1,1,1,standard
US,CA,95017-95018,*,8.25,CA Sales,1,1,1,standard
US,CA,95019-95019,*,8.5,CA Sales,1,1,1,standard
US,CA,95020-95021,*,8.75,CA Sales,1,1,1,standard
US,CA,95023-95024,*,8.5,CA Sales,1,1,1,standard
US,CA,95026-95032,*,8.75,CA Sales,1,1,1,standard
US,CA,95033-95033,*,8.25,CA Sales,1,1,1,standard
US,CA,95035-95038,*,8.75,CA Sales,1,1,1,standard
US,CA,95039-95039,*,7.5,CA Sales,1,1,1,standard
US,CA,95041-95041,*,8.25,CA Sales,1,1,1,standard
US,CA,95042-95042,*,8.75,CA Sales,1,1,1,standard
US,CA,95043-95043,*,7.5,CA Sales,1,1,1,standard
US,CA,95044-95044,*,8.75,CA Sales,1,1,1,standard
US,CA,95045-95045,*,7.5,CA Sales,1,1,1,standard
US,CA,95046-95061,*,8.75,CA Sales,1,1,1,standard
US,CA,95062-95062,*,8.25,CA Sales,1,1,1,standard
US,CA,95063-95064,*,8.75,CA Sales,1,1,1,standard
US,CA,95065-95067,*,8.25,CA Sales,1,1,1,standard
US,CA,95070-95071,*,8.75,CA Sales,1,1,1,standard
US,CA,95073-95073,*,8.25,CA Sales,1,1,1,standard
US,CA,95075-95075,*,7.5,CA Sales,1,1,1,standard
US,CA,95076-95077,*,8.5,CA Sales,1,1,1,standard
US,CA,95101-95196,*,8.75,CA Sales,1,1,1,standard
US,CA,95201-95201,*,8,CA Sales,1,1,1,standard
US,CA,95202-95207,*,8.25,CA Sales,1,1,1,standard
US,CA,95208-95208,*,8,CA Sales,1,1,1,standard
US,CA,95209-95211,*,8.25,CA Sales,1,1,1,standard
US,CA,95212-95215,*,8,CA Sales,1,1,1,standard
US,CA,95219-95219,*,8.25,CA Sales,1,1,1,standard
US,CA,95220-95220,*,8,CA Sales,1,1,1,standard
US,CA,95221-95226,*,7.5,CA Sales,1,1,1,standard
US,CA,95227-95227,*,8,CA Sales,1,1,1,standard
US,CA,95228-95229,*,7.5,CA Sales,1,1,1,standard
US,CA,95230-95231,*,8,CA Sales,1,1,1,standard
US,CA,95232-95233,*,7.5,CA Sales,1,1,1,standard
US,CA,95234-95242,*,8,CA Sales,1,1,1,standard
US,CA,95245-95252,*,7.5,CA Sales,1,1,1,standard
US,CA,95253-95253,*,8,CA Sales,1,1,1,standard
US,CA,95254-95257,*,7.5,CA Sales,1,1,1,standard
US,CA,95258-95258,*,8,CA Sales,1,1,1,standard
US,CA,95267-95269,*,8.25,CA Sales,1,1,1,standard
US,CA,95296-95296,*,8,CA Sales,1,1,1,standard
US,CA,95297-95297,*,8.25,CA Sales,1,1,1,standard
US,CA,95301-95301,*,8,CA Sales,1,1,1,standard
US,CA,95303-95303,*,7.5,CA Sales,1,1,1,standard
US,CA,95304-95304,*,8,CA Sales,1,1,1,standard
US,CA,95305-95305,*,7.5,CA Sales,1,1,1,standard
US,CA,95306-95306,*,8,CA Sales,1,1,1,standard
US,CA,95307-95307,*,8.125,CA Sales,1,1,1,standard
US,CA,95309-95310,*,7.5,CA Sales,1,1,1,standard
US,CA,95311-95311,*,8,CA Sales,1,1,1,standard
US,CA,95312-95312,*,7.5,CA Sales,1,1,1,standard
US,CA,95313-95313,*,7.625,CA Sales,1,1,1,standard
US,CA,95315-95315,*,7.5,CA Sales,1,1,1,standard
US,CA,95316-95316,*,7.625,CA Sales,1,1,1,standard
US,CA,95317-95317,*,7.5,CA Sales,1,1,1,standard
US,CA,95318-95318,*,8,CA Sales,1,1,1,standard
US,CA,95319-95319,*,7.625,CA Sales,1,1,1,standard
US,CA,95320-95320,*,8,CA Sales,1,1,1,standard
US,CA,95321-95321,*,7.5,CA Sales,1,1,1,standard
US,CA,95322-95322,*,8,CA Sales,1,1,1,standard
US,CA,95323-95323,*,7.625,CA Sales,1,1,1,standard
US,CA,95324-95324,*,7.5,CA Sales,1,1,1,standard
US,CA,95325-95325,*,8,CA Sales,1,1,1,standard
US,CA,95326-95326,*,7.625,CA Sales,1,1,1,standard
US,CA,95327-95327,*,7.5,CA Sales,1,1,1,standard
US,CA,95328-95328,*,7.625,CA Sales,1,1,1,standard
US,CA,95329-95329,*,7.5,CA Sales,1,1,1,standard
US,CA,95330-95330,*,9,CA Sales,1,1,1,standard
US,CA,95333-95335,*,7.5,CA Sales,1,1,1,standard
US,CA,95336-95337,*,8.5,CA Sales,1,1,1,standard
US,CA,95338-95341,*,8,CA Sales,1,1,1,standard
US,CA,95343-95343,*,7.5,CA Sales,1,1,1,standard
US,CA,95344-95345,*,8,CA Sales,1,1,1,standard
US,CA,95346-95347,*,7.5,CA Sales,1,1,1,standard
US,CA,95348-95348,*,8,CA Sales,1,1,1,standard
US,CA,95350-95360,*,7.625,CA Sales,1,1,1,standard
US,CA,95361-95361,*,8.125,CA Sales,1,1,1,standard
US,CA,95363-95363,*,7.625,CA Sales,1,1,1,standard
US,CA,95364-95365,*,7.5,CA Sales,1,1,1,standard
US,CA,95366-95366,*,8,CA Sales,1,1,1,standard
US,CA,95367-95368,*,7.625,CA Sales,1,1,1,standard
US,CA,95369-95375,*,7.5,CA Sales,1,1,1,standard
US,CA,95376-95378,*,8.5,CA Sales,1,1,1,standard
US,CA,95379-95379,*,7.5,CA Sales,1,1,1,standard
US,CA,95380-95382,*,7.625,CA Sales,1,1,1,standard
US,CA,95383-95383,*,7.5,CA Sales,1,1,1,standard
US,CA,95385-95387,*,7.625,CA Sales,1,1,1,standard
US,CA,95388-95388,*,7.5,CA Sales,1,1,1,standard
US,CA,95389-95391,*,8,CA Sales,1,1,1,standard
US,CA,95397-95397,*,7.625,CA Sales,1,1,1,standard
US,CA,95401-95409,*,8.75,CA Sales,1,1,1,standard
US,CA,95410-95410,*,7.625,CA Sales,1,1,1,standard
US,CA,95412-95412,*,8.25,CA Sales,1,1,1,standard
US,CA,95415-95415,*,7.625,CA Sales,1,1,1,standard
US,CA,95416-95416,*,8.25,CA Sales,1,1,1,standard
US,CA,95417-95418,*,7.625,CA Sales,1,1,1,standard
US,CA,95419-95419,*,8.25,CA Sales,1,1,1,standard
US,CA,95420-95420,*,7.625,CA Sales,1,1,1,standard
US,CA,95421-95421,*,8.25,CA Sales,1,1,1,standard
US,CA,95422-95422,*,8,CA Sales,1,1,1,standard
US,CA,95423-95423,*,7.5,CA Sales,1,1,1,standard
US,CA,95424-95424,*,8,CA Sales,1,1,1,standard
US,CA,95425-95425,*,8.25,CA Sales,1,1,1,standard
US,CA,95426-95426,*,7.5,CA Sales,1,1,1,standard
US,CA,95427-95429,*,7.625,CA Sales,1,1,1,standard
US,CA,95430-95431,*,8.25,CA Sales,1,1,1,standard
US,CA,95432-95432,*,7.625,CA Sales,1,1,1,standard
US,CA,95433-95433,*,8.25,CA Sales,1,1,1,standard
US,CA,95435-95435,*,7.5,CA Sales,1,1,1,standard
US,CA,95436-95436,*,8.25,CA Sales,1,1,1,standard
US,CA,95437-95437,*,8.625,CA Sales,1,1,1,standard
US,CA,95439-95442,*,8.25,CA Sales,1,1,1,standard
US,CA,95443-95443,*,7.5,CA Sales,1,1,1,standard
US,CA,95444-95444,*,8.25,CA Sales,1,1,1,standard
US,CA,95445-95445,*,7.625,CA Sales,1,1,1,standard
US,CA,95446-95446,*,8.25,CA Sales,1,1,1,standard
US,CA,95448-95448,*,8.75,CA Sales,1,1,1,standard
US,CA,95449-95449,*,7.625,CA Sales,1,1,1,standard
US,CA,95450-95450,*,8.25,CA Sales,1,1,1,standard
US,CA,95451-95451,*,7.5,CA Sales,1,1,1,standard
US,CA,95452-95452,*,8.25,CA Sales,1,1,1,standard
US,CA,95453-95453,*,8,CA Sales,1,1,1,standard
US,CA,95454-95456,*,7.625,CA Sales,1,1,1,standard
US,CA,95457-95458,*,7.5,CA Sales,1,1,1,standard
US,CA,95459-95460,*,7.625,CA Sales,1,1,1,standard
US,CA,95461-95461,*,7.5,CA Sales,1,1,1,standard
US,CA,95462-95462,*,8.25,CA Sales,1,1,1,standard
US,CA,95463-95463,*,7.625,CA Sales,1,1,1,standard
US,CA,95464-95464,*,7.5,CA Sales,1,1,1,standard
US,CA,95465-95465,*,8.25,CA Sales,1,1,1,standard
US,CA,95466-95466,*,7.625,CA Sales,1,1,1,standard
US,CA,95467-95467,*,7.5,CA Sales,1,1,1,standard
US,CA,95468-95470,*,7.625,CA Sales,1,1,1,standard
US,CA,95471-95472,*,8.25,CA Sales,1,1,1,standard
US,CA,95473-95473,*,9,CA Sales,1,1,1,standard
US,CA,95476-95480,*,8.25,CA Sales,1,1,1,standard
US,CA,95481-95481,*,7.625,CA Sales,1,1,1,standard
US,CA,95482-95482,*,8.125,CA Sales,1,1,1,standard
US,CA,95485-95485,*,7.5,CA Sales,1,1,1,standard
US,CA,95486-95487,*,8.25,CA Sales,1,1,1,standard
US,CA,95488-95490,*,7.625,CA Sales,1,1,1,standard
US,CA,95492-95492,*,8.25,CA Sales,1,1,1,standard
US,CA,95493-95493,*,7.5,CA Sales,1,1,1,standard
US,CA,95494-95497,*,7.625,CA Sales,1,1,1,standard
US,CA,95501-95502,*,8.25,CA Sales,1,1,1,standard
US,CA,95503-95514,*,7.5,CA Sales,1,1,1,standard
US,CA,95518-95518,*,8.25,CA Sales,1,1,1,standard
US,CA,95519-95519,*,7.5,CA Sales,1,1,1,standard
US,CA,95521-95521,*,8.25,CA Sales,1,1,1,standard
US,CA,95524-95532,*,7.5,CA Sales,1,1,1,standard
US,CA,95534-95534,*,8.25,CA Sales,1,1,1,standard
US,CA,95536-95573,*,7.5,CA Sales,1,1,1,standard
US,CA,95585-95585,*,7.625,CA Sales,1,1,1,standard
US,CA,95587-95595,*,7.5,CA Sales,1,1,1,standard
US,CA,95601-95601,*,8,CA Sales,1,1,1,standard
US,CA,95602-95604,*,7.5,CA Sales,1,1,1,standard
US,CA,95605-95605,*,8,CA Sales,1,1,1,standard
US,CA,95606-95607,*,7.5,CA Sales,1,1,1,standard
US,CA,95608-95611,*,8,CA Sales,1,1,1,standard
US,CA,95612-95614,*,7.5,CA Sales,1,1,1,standard
US,CA,95615-95618,*,8,CA Sales,1,1,1,standard
US,CA,95619-95619,*,7.5,CA Sales,1,1,1,standard
US,CA,95620-95620,*,7.625,CA Sales,1,1,1,standard
US,CA,95621-95621,*,8,CA Sales,1,1,1,standard
US,CA,95623-95623,*,7.5,CA Sales,1,1,1,standard
US,CA,95624-95624,*,8,CA Sales,1,1,1,standard
US,CA,95625-95625,*,7.625,CA Sales,1,1,1,standard
US,CA,95626-95626,*,8,CA Sales,1,1,1,standard
US,CA,95627-95627,*,7.5,CA Sales,1,1,1,standard
US,CA,95628-95630,*,8,CA Sales,1,1,1,standard
US,CA,95631-95631,*,7.5,CA Sales,1,1,1,standard
US,CA,95632-95632,*,8.5,CA Sales,1,1,1,standard
US,CA,95633-95637,*,7.5,CA Sales,1,1,1,standard
US,CA,95638-95644,*,8,CA Sales,1,1,1,standard
US,CA,95645-95645,*,7.5,CA Sales,1,1,1,standard
US,CA,95646-95646,*,8,CA Sales,1,1,1,standard
US,CA,95648-95651,*,7.5,CA Sales,1,1,1,standard
US,CA,95652-95652,*,8,CA Sales,1,1,1,standard
US,CA,95653-95653,*,7.5,CA Sales,1,1,1,standard
US,CA,95654-95655,*,8,CA Sales,1,1,1,standard
US,CA,95656-95659,*,7.5,CA Sales,1,1,1,standard
US,CA,95660-95660,*,8,CA Sales,1,1,1,standard
US,CA,95661-95661,*,7.5,CA Sales,1,1,1,standard
US,CA,95662-95662,*,8,CA Sales,1,1,1,standard
US,CA,95663-95664,*,7.5,CA Sales,1,1,1,standard
US,CA,95665-95666,*,8,CA Sales,1,1,1,standard
US,CA,95667-95668,*,7.5,CA Sales,1,1,1,standard
US,CA,95669-95671,*,8,CA Sales,1,1,1,standard
US,CA,95672-95672,*,7.5,CA Sales,1,1,1,standard
US,CA,95673-95673,*,8,CA Sales,1,1,1,standard
US,CA,95674-95679,*,7.5,CA Sales,1,1,1,standard
US,CA,95680-95680,*,8,CA Sales,1,1,1,standard
US,CA,95681-95682,*,7.5,CA Sales,1,1,1,standard
US,CA,95683-95683,*,8,CA Sales,1,1,1,standard
US,CA,95684-95684,*,7.5,CA Sales,1,1,1,standard
US,CA,95685-95686,*,8,CA Sales,1,1,1,standard
US,CA,95687-95688,*,7.875,CA Sales,1,1,1,standard
US,CA,95689-95693,*,8,CA Sales,1,1,1,standard
US,CA,95694-95694,*,7.5,CA Sales,1,1,1,standard
US,CA,95695-95695,*,8.25,CA Sales,1,1,1,standard
US,CA,95696-95696,*,7.875,CA Sales,1,1,1,standard
US,CA,95697-95698,*,7.5,CA Sales,1,1,1,standard
US,CA,95699-95699,*,8,CA Sales,1,1,1,standard
US,CA,95701-95709,*,7.5,CA Sales,1,1,1,standard
US,CA,95712-95712,*,7.625,CA Sales,1,1,1,standard
US,CA,95713-95722,*,7.5,CA Sales,1,1,1,standard
US,CA,95724-95724,*,7.625,CA Sales,1,1,1,standard
US,CA,95726-95726,*,7.5,CA Sales,1,1,1,standard
US,CA,95728-95728,*,7.625,CA Sales,1,1,1,standard
US,CA,95735-95736,*,7.5,CA Sales,1,1,1,standard
US,CA,95741-95742,*,8,CA Sales,1,1,1,standard
US,CA,95746-95747,*,7.5,CA Sales,1,1,1,standard
US,CA,95757-95759,*,8,CA Sales,1,1,1,standard
US,CA,95762-95762,*,7.5,CA Sales,1,1,1,standard
US,CA,95763-95763,*,8,CA Sales,1,1,1,standard
US,CA,95765-95765,*,7.5,CA Sales,1,1,1,standard
US,CA,95776-95776,*,8.25,CA Sales,1,1,1,standard
US,CA,95798-95799,*,8,CA Sales,1,1,1,standard
US,CA,95811-95820,*,8.5,CA Sales,1,1,1,standard
US,CA,95821-95821,*,8,CA Sales,1,1,1,standard
US,CA,95822-95823,*,8.5,CA Sales,1,1,1,standard
US,CA,95824-95830,*,8,CA Sales,1,1,1,standard
US,CA,95831-95835,*,8.5,CA Sales,1,1,1,standard
US,CA,95836-95837,*,8,CA Sales,1,1,1,standard
US,CA,95838-95840,*,8.5,CA Sales,1,1,1,standard
US,CA,95841-95843,*,8,CA Sales,1,1,1,standard
US,CA,95851-95853,*,8.5,CA Sales,1,1,1,standard
US,CA,95860-95866,*,8,CA Sales,1,1,1,standard
US,CA,95867-95899,*,8.5,CA Sales,1,1,1,standard
US,CA,95901-95923,*,7.5,CA Sales,1,1,1,standard
US,CA,95924-95924,*,7.625,CA Sales,1,1,1,standard
US,CA,95925-95944,*,7.5,CA Sales,1,1,1,standard
US,CA,95945-95945,*,8.125,CA Sales,1,1,1,standard
US,CA,95946-95946,*,7.625,CA Sales,1,1,1,standard
US,CA,95947-95948,*,7.5,CA Sales,1,1,1,standard
US,CA,95949-95949,*,7.625,CA Sales,1,1,1,standard
US,CA,95950-95958,*,7.5,CA Sales,1,1,1,standard
US,CA,95959-95960,*,7.625,CA Sales,1,1,1,standard
US,CA,95961-95974,*,7.5,CA Sales,1,1,1,standard
US,CA,95975-95975,*,7.625,CA Sales,1,1,1,standard
US,CA,95976-95976,*,7.5,CA Sales,1,1,1,standard
US,CA,95977-95977,*,7.625,CA Sales,1,1,1,standard
US,CA,95978-95984,*,7.5,CA Sales,1,1,1,standard
US,CA,95986-95986,*,7.625,CA Sales,1,1,1,standard
US,CA,95987-95987,*,8,CA Sales,1,1,1,standard
US,CA,95988-96065,*,7.5,CA Sales,1,1,1,standard
US,CA,96067-96067,*,7.75,CA Sales,1,1,1,standard
US,CA,96068-96110,*,7.5,CA Sales,1,1,1,standard
US,CA,96111-96111,*,7.625,CA Sales,1,1,1,standard
US,CA,96112-96148,*,7.5,CA Sales,1,1,1,standard
US,CA,96150-96154,*,8,CA Sales,1,1,1,standard
US,CA,96155-96155,*,7.5,CA Sales,1,1,1,standard
US,CA,96156-96156,*,8,CA Sales,1,1,1,standard
US,CA,96157-96157,*,7.5,CA Sales,1,1,1,standard
US,CA,96158-96158,*,8,CA Sales,1,1,1,standard
US,CA,96160-96162,*,8.125,CA Sales,1,1,1,standard
